STARLINK-6099
1 57108U 23090H   26092.83335647  .00001012  00000+0  79597-4 0  9997
2 57108  43.0006 143.6452 0002306 266.0485  73.4472 15.07407933  5712
STARLINK-6142
1 57113U 23090N   26092.83335647  .00003195  00000+0  22132-3 0  9999
2 57113  42.9997 143.4275 0002003 283.6922 146.3010 15.07401439  5848
